{
  "type": "FeatureCollection",
  "features": [
    {
      "type": "Feature",
      "properties": {
        "country": "CN",
        "province": "广东省",
        "city": "广州市",
        "district": "黄埔区",
        "name": "黄埔区",
        "fullname": "广东省广州市黄埔区",
        "adcode": "440112",
        "level": "district"
      },
      "geometry": {
        "type": "Polygon",
        "coordinates": [
          [
            [113.55, 23.10],
            [113.63, 23.10],
            [113.63, 23.20],
            [113.55, 23.20],
            [113.55, 23.10]
          ]
        ]
      }
    },
    {
      "type": "Feature",
      "properties": {
        "country": "CN",
        "province": "广东省",
        "city": "广州市",
        "district": "增城区",
        "name": "增城区",
        "fullname": "广东省广州市增城区",
        "adcode": "440118",
        "level": "district"
      },
      "geometry": {
        "type": "Polygon",
        "coordinates": [
          [
            [113.63, 23.10],
            [113.72, 23.10],
            [113.72, 23.20],
            [113.63, 23.20],
            [113.63, 23.10]
          ]
        ]
      }
    }
  ]
}
